IRIDIUM 7 [-]           
1 24793U 97020B   24034.03548888  .00000465  00000+0  15635-3 0  9997
2 24793  86.3956  26.3983 0002090  83.0245 277.1189 14.35060190400365
IRIDIUM 5 [-]           
1 24795U 97020D   24033.81474200  .00003123  00000+0  30401-3 0  9992
2 24795  86.3948 312.7244 0127507 122.0110 239.3580 14.86111192410952
IRIDIUM 4 [-]           
1 24796U 97020E   24033.91979928  .00000505  00000+0  16740-3 0  9992
2 24796  86.3955  23.6575 0002336  86.8701 273.2763 14.35971803400654
IRIDIUM 914 [-]         
1 24836U 97030A   24034.52001485  .00000570  00000+0  17542-3 0  9993
2 24836  86.3921  33.4703 0004031  79.4479 280.7174 14.39808417397308
IRIDIUM 16 [-]          
1 24841U 97030F   24033.53271918  .00000500  00000+0  15994-3 0  9991
2 24841  86.3997  55.5237 0000149 110.5655 249.5558 14.37691495395304
IRIDIUM 911 [-]         
1 24842U 97030G   24034.12826348  .00000666  00000+0  18044-3 0  9993
2 24842  86.4423  54.5134 0013112 332.3316  27.7187 14.46268132402757
IRIDIUM 17 [-]          
1 24870U 97034B   24033.69468416  .00000476  00000+0  15465-3 0  9990
2 24870  86.3924  85.1124 0002020 139.2293 220.9056 14.36789125391697
IRIDIUM 920 [-]         
1 24871U 97034C   24034.46993737  .00000526  00000+0  15914-3 0  9991
2 24871  86.3932  65.1644 0009493 294.3919  65.6289 14.40511147394878
